[{"OBJECT_NAME":"STARLINK-36724","OBJECT_ID":"2026-036L","EPOCH":"2026-03-11T20:24:12.243744","MEAN_MOTION":15.82180836,"ECCENTRICITY":0.0001742,"INCLINATION":42.9983,"RA_OF_ASC_NODE":236.4507,"ARG_OF_PERICENTER":327.9257,"MEAN_ANOMALY":32.1509,"EPHEMERIS_TYPE":0,"CLASSIFICATION_TYPE":"U","NORAD_CAT_ID":67914,"ELEMENT_SET_NO":999,"REV_AT_EPOCH":401,"BSTAR":0.0021408535,"MEAN_MOTION_DOT":0.00479839,"MEAN_MOTION_DDOT":0},{"OBJECT_NAME":"STARLINK-36723","OBJECT_ID":"2026-036M","EPOCH":"2026-03-12T20:00:01.999008","MEAN_MOTION":15.79630597,"ECCENTRICITY":0.000116,"INCLINATION":42.9992,"RA_OF_ASC_NODE":230.4451,"ARG_OF_PERICENTER":277.1969,"MEAN_ANOMALY":282.7048,"EPHEMERIS_TYPE":0,"CLASSIFICATION_TYPE":"U","NORAD_CAT_ID":67915,"ELEMENT_SET_NO":999,"REV_AT_EPOCH":415,"BSTAR":-0.011441,"MEAN_MOTION_DOT":-0.01883491,"MEAN_MOTION_DDOT":0},{"OBJECT_NAME":"STARLINK-36721","OBJECT_ID":"2026-036N","EPOCH":"2026-03-12T11:32:19.370400","MEAN_MOTION":15.82196979,"ECCENTRICITY":0.0005811,"INCLINATION":42.9987,"RA_OF_ASC_NODE":232.5781,"ARG_OF_PERICENTER":241.835,"MEAN_ANOMALY":118.1935,"EPHEMERIS_TYPE":0,"CLASSIFICATION_TYPE":"U","NORAD_CAT_ID":67916,"ELEMENT_SET_NO":999,"REV_AT_EPOCH":411,"BSTAR":0.0035062,"MEAN_MOTION_DOT":0.00818747,"MEAN_MOTION_DDOT":0},{"OBJECT_NAME":"STARLINK-36722","OBJECT_ID":"2026-036P","EPOCH":"2026-03-12T19:05:43.068768","MEAN_MOTION":15.82084198,"ECCENTRICITY":0.0001833,"INCLINATION":42.9987,"RA_OF_ASC_NODE":230.634,"ARG_OF_PERICENTER":282.1421,"MEAN_ANOMALY":77.9245,"EPHEMERIS_TYPE":0,"CLASSIFICATION_TYPE":"U","NORAD_CAT_ID":67917,"ELEMENT_SET_NO":999,"REV_AT_EPOCH":416,"BSTAR":0.00065681,"MEAN_MOTION_DOT":0.00140482,"MEAN_MOTION_DDOT":0},{"OBJECT_NAME":"STARLINK-36341","OBJECT_ID":"2026-036Q","EPOCH":"2026-03-12T20:00:01.999008","MEAN_MOTION":15.65170787,"ECCENTRICITY":0.0001529,"INCLINATION":42.9992,"RA_OF_ASC_NODE":230.6881,"ARG_OF_PERICENTER":287.3114,"MEAN_ANOMALY":174.4401,"EPHEMERIS_TYPE":0,"CLASSIFICATION_TYPE":"U","NORAD_CAT_ID":67918,"ELEMENT_SET_NO":999,"REV_AT_EPOCH":415,"BSTAR":-0.021114,"MEAN_MOTION_DOT":-0.01902023,"MEAN_MOTION_DDOT":0},{"OBJECT_NAME":"STARLINK-36663","OBJECT_ID":"2026-036R","EPOCH":"2026-03-12T11:30:07.098912","MEAN_MOTION":15.82031084,"ECCENTRICITY":0.0003982,"INCLINATION":42.9983,"RA_OF_ASC_NODE":232.5638,"ARG_OF_PERICENTER":241.2854,"MEAN_ANOMALY":118.7618,"EPHEMERIS_TYPE":0,"CLASSIFICATION_TYPE":"U","NORAD_CAT_ID":67919,"ELEMENT_SET_NO":999,"REV_AT_EPOCH":411,"BSTAR":0.0025944,"MEAN_MOTION_DOT":0.00584721,"MEAN_MOTION_DDOT":0},{"OBJECT_NAME":"STARLINK-36375","OBJECT_ID":"2026-036S","EPOCH":"2026-03-12T20:00:01.999008","MEAN_MOTION":15.7409997,"ECCENTRICITY":0.0001264,"INCLINATION":42.9993,"RA_OF_ASC_NODE":230.4414,"ARG_OF_PERICENTER":278.6621,"MEAN_ANOMALY":282.4493,"EPHEMERIS_TYPE":0,"CLASSIFICATION_TYPE":"U","NORAD_CAT_ID":67920,"ELEMENT_SET_NO":999,"REV_AT_EPOCH":415,"BSTAR":-0.014567,"MEAN_MOTION_DOT":-0.01871374,"MEAN_MOTION_DDOT":0},{"OBJECT_NAME":"STARLINK-36405","OBJECT_ID":"2026-036T","EPOCH":"2026-03-12T20:00:01.999008","MEAN_MOTION":15.65385989,"ECCENTRICITY":0.0001507,"INCLINATION":42.999,"RA_OF_ASC_NODE":230.6602,"ARG_OF_PERICENTER":286.715,"MEAN_ANOMALY":186.6092,"EPHEMERIS_TYPE":0,"CLASSIFICATION_TYPE":"U","NORAD_CAT_ID":67921,"ELEMENT_SET_NO":999,"REV_AT_EPOCH":415,"BSTAR":-0.020957,"MEAN_MOTION_DOT":-0.01904049,"MEAN_MOTION_DDOT":0},{"OBJECT_NAME":"STARLINK-36383","OBJECT_ID":"2026-036U","EPOCH":"2026-03-12T19:00:19.589760","MEAN_MOTION":15.82071694,"ECCENTRICITY":0.0001413,"INCLINATION":42.9989,"RA_OF_ASC_NODE":230.6041,"ARG_OF_PERICENTER":276.1745,"MEAN_ANOMALY":83.8965,"EPHEMERIS_TYPE":0,"CLASSIFICATION_TYPE":"U","NORAD_CAT_ID":67922,"ELEMENT_SET_NO":999,"REV_AT_EPOCH":416,"BSTAR":0.0004977,"MEAN_MOTION_DOT":0.00105829,"MEAN_MOTION_DDOT":0},{"OBJECT_NAME":"STARLINK-36406","OBJECT_ID":"2026-036V","EPOCH":"2026-03-12T20:00:01.999008","MEAN_MOTION":15.60919893,"ECCENTRICITY":0.0001558,"INCLINATION":42.9994,"RA_OF_ASC_NODE":230.8175,"ARG_OF_PERICENTER":282.4672,"MEAN_ANOMALY":127.0251,"EPHEMERIS_TYPE":0,"CLASSIFICATION_TYPE":"U","NORAD_CAT_ID":67923,"ELEMENT_SET_NO":999,"REV_AT_EPOCH":415,"BSTAR":-0.024817,"MEAN_MOTION_DOT":-0.01890112,"MEAN_MOTION_DDOT":0},{"OBJECT_NAME":"STARLINK-36714","OBJECT_ID":"2026-036W","EPOCH":"2026-03-12T20:00:01.999008","MEAN_MOTION":15.74699704,"ECCENTRICITY":0.000145,"INCLINATION":42.9992,"RA_OF_ASC_NODE":230.3886,"ARG_OF_PERICENTER":279.2272,"MEAN_ANOMALY":302.9229,"EPHEMERIS_TYPE":0,"CLASSIFICATION_TYPE":"U","NORAD_CAT_ID":67924,"ELEMENT_SET_NO":999,"REV_AT_EPOCH":415,"BSTAR":-0.014166,"MEAN_MOTION_DOT":-0.01869046,"MEAN_MOTION_DDOT":0},{"OBJECT_NAME":"STARLINK-36726","OBJECT_ID":"2026-036X","EPOCH":"2026-03-12T20:00:01.999008","MEAN_MOTION":15.65153171,"ECCENTRICITY":0.0001365,"INCLINATION":42.9994,"RA_OF_ASC_NODE":230.6251,"ARG_OF_PERICENTER":286.7156,"MEAN_ANOMALY":200.3645,"EPHEMERIS_TYPE":0,"CLASSIFICATION_TYPE":"U","NORAD_CAT_ID":67925,"ELEMENT_SET_NO":999,"REV_AT_EPOCH":415,"BSTAR":-0.021138,"MEAN_MOTION_DOT":-0.01902605,"MEAN_MOTION_DDOT":0},{"OBJECT_NAME":"STARLINK-36758","OBJECT_ID":"2026-036Y","EPOCH":"2026-03-12T20:00:01.999008","MEAN_MOTION":15.72149689,"ECCENTRICITY":0.0001364,"INCLINATION":42.9992,"RA_OF_ASC_NODE":230.4136,"ARG_OF_PERICENTER":277.9282,"MEAN_ANOMALY":293.9033,"EPHEMERIS_TYPE":0,"CLASSIFICATION_TYPE":"U","NORAD_CAT_ID":67926,"ELEMENT_SET_NO":999,"REV_AT_EPOCH":415,"BSTAR":-0.015863,"MEAN_MOTION_DOT":-0.01872252,"MEAN_MOTION_DDOT":0},{"OBJECT_NAME":"STARLINK-36728","OBJECT_ID":"2026-036Z","EPOCH":"2026-03-12T20:00:01.999008","MEAN_MOTION":15.75577318,"ECCENTRICITY":0.0001381,"INCLINATION":42.9992,"RA_OF_ASC_NODE":230.3323,"ARG_OF_PERICENTER":274.0837,"MEAN_ANOMALY":330.3255,"EPHEMERIS_TYPE":0,"CLASSIFICATION_TYPE":"U","NORAD_CAT_ID":67927,"ELEMENT_SET_NO":999,"REV_AT_EPOCH":415,"BSTAR":-0.013652,"MEAN_MOTION_DOT":-0.01872086,"MEAN_MOTION_DDOT":0},{"OBJECT_NAME":"STARLINK-36771","OBJECT_ID":"2026-036AA","EPOCH":"2026-03-12T20:00:01.999008","MEAN_MOTION":15.73821937,"ECCENTRICITY":0.0001401,"INCLINATION":42.9993,"RA_OF_ASC_NODE":230.3703,"ARG_OF_PERICENTER":273.1844,"MEAN_ANOMALY":315.8945,"EPHEMERIS_TYPE":0,"CLASSIFICATION_TYPE":"U","NORAD_CAT_ID":67928,"ELEMENT_SET_NO":999,"REV_AT_EPOCH":415,"BSTAR":-0.014772,"MEAN_MOTION_DOT":-0.0187442,"MEAN_MOTION_DDOT":0},{"OBJECT_NAME":"STARLINK-36809","OBJECT_ID":"2026-036AB","EPOCH":"2026-03-12T20:00:01.999008","MEAN_MOTION":15.73846514,"ECCENTRICITY":0.0001382,"INCLINATION":42.9993,"RA_OF_ASC_NODE":230.3482,"ARG_OF_PERICENTER":275.482,"MEAN_ANOMALY":322.3114,"EPHEMERIS_TYPE":0,"CLASSIFICATION_TYPE":"U","NORAD_CAT_ID":67929,"ELEMENT_SET_NO":999,"REV_AT_EPOCH":415,"BSTAR":-0.014753,"MEAN_MOTION_DOT":-0.01874114,"MEAN_MOTION_DDOT":0}]
