STARLINK-36724          
1 67914U 26036L   26070.85014171  .00479839  00000+0  21409-2 0  9993
2 67914  42.9983 236.4507 0001742 327.9257  32.1509 15.82180836  4017
STARLINK-36723          
1 67915U 26036M   26071.83335647 -.01883491  00000+0 -11441-1 0  9997
2 67915  42.9992 230.4451 0001160 277.1969 282.7048 15.79630597  4156
STARLINK-36721          
1 67916U 26036N   26071.48077975  .00818747  00000+0  35062-2 0  9991
2 67916  42.9987 232.5781 0005811 241.8350 118.1935 15.82196979  4117
STARLINK-36722          
1 67917U 26036P   26071.79563737  .00140482  00000+0  65681-3 0  9997
2 67917  42.9987 230.6340 0001833 282.1421  77.9245 15.82084198  4165
STARLINK-36341          
1 67918U 26036Q   26071.83335647 -.01902023  00000+0 -21114-1 0  9991
2 67918  42.9992 230.6881 0001529 287.3114 174.4401 15.65170787  4157
STARLINK-36663          
1 67919U 26036R   26071.47924883  .00584721  00000+0  25944-2 0  9992
2 67919  42.9983 232.5638 0003982 241.2854 118.7618 15.82031084  4116
STARLINK-36375          
1 67920U 26036S   26071.83335647 -.01871374  00000+0 -14567-1 0  9992
2 67920  42.9993 230.4414 0001264 278.6621 282.4493 15.74099970  4158
STARLINK-36405          
1 67921U 26036T   26071.83335647 -.01904049  00000+0 -20957-1 0  9999
2 67921  42.9990 230.6602 0001507 286.7150 186.6092 15.65385989  4152
STARLINK-36383          
1 67922U 26036U   26071.79189340  .00105829  00000+0  49770-3 0  9994
2 67922  42.9989 230.6041 0001413 276.1745  83.8965 15.82071694  4169
STARLINK-36406          
1 67923U 26036V   26071.83335647 -.01890112  00000+0 -24817-1 0  9995
2 67923  42.9994 230.8175 0001558 282.4672 127.0251 15.60919893  4151
STARLINK-36714          
1 67924U 26036W   26071.83335647 -.01869046  00000+0 -14166-1 0  9994
2 67924  42.9992 230.3886 0001450 279.2272 302.9229 15.74699704  4155
STARLINK-36726          
1 67925U 26036X   26071.83335647 -.01902605  00000+0 -21138-1 0  9991
2 67925  42.9994 230.6251 0001365 286.7156 200.3645 15.65153171  4152
STARLINK-36758          
1 67926U 26036Y   26071.83335647 -.01872252  00000+0 -15863-1 0  9994
2 67926  42.9992 230.4136 0001364 277.9282 293.9033 15.72149689  4158
STARLINK-36728          
1 67927U 26036Z   26071.83335647 -.01872086  00000+0 -13652-1 0  9994
2 67927  42.9992 230.3323 0001381 274.0837 330.3255 15.75577318  4158
STARLINK-36771          
1 67928U 26036AA  26071.83335647 -.01874420  00000+0 -14772-1 0  9993
2 67928  42.9993 230.3703 0001401 273.1844 315.8945 15.73821937  4154
STARLINK-36809          
1 67929U 26036AB  26071.83335647 -.01874114  00000+0 -14753-1 0  9993
2 67929  42.9993 230.3482 0001382 275.4820 322.3114 15.73846514  4155
